ONEWEB-0033             
1 45142U 20008M   26080.47079925 -.00000064  00000+0 -21897-3 0  9996
2 45142  87.8787  53.7397 0002400  81.9081 278.2319 13.10370897296727
ONEWEB-0035             
1 45143U 20008N   26080.42513909 -.00000254  00000+0 -76498-3 0  9995
2 45143  87.8794  53.7475 0002043  83.4061 276.7299 13.10375604296441
ONEWEB-0036             
1 45144U 20008P   26080.35372022  .00000024  00000+0  33674-4 0  9990
2 45144  87.8812  53.7371 0001646  82.4917 277.6397 13.09820958296865
ONEWEB-0038             
1 45145U 20008Q   26080.58018444  .00000077  00000+0  18240-3 0  9990
2 45145  87.8894  38.4810 0002902 115.2409 244.9020 13.11413866298840
ONEWEB-0039             
1 45146U 20008R   26080.47410525 -.00000233  00000+0 -70476-3 0  9990
2 45146  87.8803  53.7239 0001420  95.2864 264.8425 13.10369981296678
ONEWEB-0040             
1 45147U 20008S   26080.46747161  .00000104  00000+0  26265-3 0  9991
2 45147  87.8791  53.7403 0001888  87.2017 272.9326 13.10370291296370
ONEWEB-0043             
1 45149U 20008U   26080.46912924 -.00000009  00000+0 -61384-4 0  9992
2 45149  87.8796  53.7236 0001392  93.8660 266.2627 13.10369630296698
ONEWEB-0044             
1 45150U 20008V   26080.42097183 -.00000385  00000+0 -11387-2 0  9994
2 45150  87.8803  53.7292 0001758  88.1618 271.9710 13.10373799296986
ONEWEB-0045             
1 45151U 20008W   26080.57497298  .00000253  00000+0  67716-3 0  9992
2 45151  87.8891  38.4687 0001803  83.7302 276.4031 13.11414985298920
ONEWEB-0047             
1 45152U 20008X   26080.41434036 -.00000567  00000+0 -16618-2 0  9991
2 45152  87.8797  53.7327 0002047  85.5160 274.6202 13.10373892296704
ONEWEB-0048             
1 45153U 20008Y   26080.48571790 -.00000588  00000+0 -17210-2 0  9990
2 45153  87.8788  53.7451 0001948  84.7491 275.3859 13.10372579296325
ONEWEB-0049             
1 45154U 20008Z   26080.41254313 -.00000606  00000+0 -17715-2 0  9994
2 45154  87.8792  53.7477 0001600  71.9599 288.1702 13.10373207296532
ONEWEB-0051             
1 45155U 20008AA  26080.57327184  .00000329  00000+0  89331-3 0  9993
2 45155  87.8890  38.4816 0001869  80.9691 279.1648 13.11415890299605
ONEWEB-0052             
1 45156U 20008AB  26080.41791914 -.00000569  00000+0 -16773-2 0  9990
2 45156  87.8805  53.7226 0001523  71.4301 288.6991 13.09877332296442
ONEWEB-0053             
1 45157U 20008AC  26080.46581251  .00000206  00000+0  55433-3 0  9990
2 45157  87.8790  53.7463 0001482  84.3281 275.8015 13.10370282296420
ONEWEB-0054             
1 45158U 20008AD  26080.42430320 -.00000277  00000+0 -83023-3 0  9993
2 45158  87.8803  53.7298 0001848  80.6914 279.4423 13.10376979296534
ONEWEB-0056             
1 45159U 20008AE  26080.48156840 -.00000515  00000+0 -15127-2 0  9996
2 45159  87.8796  53.7186 0001838  77.6087 282.5246 13.10371933296698
