[{"OBJECT_NAME":"ONEWEB-0033","OBJECT_ID":"2020-008M","EPOCH":"2026-03-21T11:17:57.055200","MEAN_MOTION":13.10370897,"ECCENTRICITY":0.00024006,"INCLINATION":87.8787,"RA_OF_ASC_NODE":53.7397,"ARG_OF_PERICENTER":81.9081,"MEAN_ANOMALY":278.2319,"EPHEMERIS_TYPE":0,"CLASSIFICATION_TYPE":"U","NORAD_CAT_ID":45142,"ELEMENT_SET_NO":999,"REV_AT_EPOCH":29672,"BSTAR":-0.00021896621,"MEAN_MOTION_DOT":-6.4e-7,"MEAN_MOTION_DDOT":0},{"OBJECT_NAME":"ONEWEB-0035","OBJECT_ID":"2020-008N","EPOCH":"2026-03-21T10:12:12.017376","MEAN_MOTION":13.10375604,"ECCENTRICITY":0.00020435,"INCLINATION":87.8794,"RA_OF_ASC_NODE":53.7475,"ARG_OF_PERICENTER":83.4061,"MEAN_ANOMALY":276.7299,"EPHEMERIS_TYPE":0,"CLASSIFICATION_TYPE":"U","NORAD_CAT_ID":45143,"ELEMENT_SET_NO":999,"REV_AT_EPOCH":29644,"BSTAR":-0.00076497901,"MEAN_MOTION_DOT":-2.54e-6,"MEAN_MOTION_DDOT":0},{"OBJECT_NAME":"ONEWEB-0036","OBJECT_ID":"2020-008P","EPOCH":"2026-03-21T08:29:21.427008","MEAN_MOTION":13.09820958,"ECCENTRICITY":0.00016468,"INCLINATION":87.8812,"RA_OF_ASC_NODE":53.7371,"ARG_OF_PERICENTER":82.4917,"MEAN_ANOMALY":277.6397,"EPHEMERIS_TYPE":0,"CLASSIFICATION_TYPE":"U","NORAD_CAT_ID":45144,"ELEMENT_SET_NO":999,"REV_AT_EPOCH":29686,"BSTAR":3.367421e-5,"MEAN_MOTION_DOT":2.4e-7,"MEAN_MOTION_DDOT":0},{"OBJECT_NAME":"ONEWEB-0038","OBJECT_ID":"2020-008Q","EPOCH":"2026-03-21T13:55:27.935616","MEAN_MOTION":13.11413866,"ECCENTRICITY":0.00029022,"INCLINATION":87.8894,"RA_OF_ASC_NODE":38.481,"ARG_OF_PERICENTER":115.2409,"MEAN_ANOMALY":244.902,"EPHEMERIS_TYPE":0,"CLASSIFICATION_TYPE":"U","NORAD_CAT_ID":45145,"ELEMENT_SET_NO":999,"REV_AT_EPOCH":29884,"BSTAR":0.0001824013,"MEAN_MOTION_DOT":7.7e-7,"MEAN_MOTION_DDOT":0},{"OBJECT_NAME":"ONEWEB-0039","OBJECT_ID":"2020-008R","EPOCH":"2026-03-21T11:22:42.693600","MEAN_MOTION":13.10369981,"ECCENTRICITY":0.000142,"INCLINATION":87.8803,"RA_OF_ASC_NODE":53.7239,"ARG_OF_PERICENTER":95.2864,"MEAN_ANOMALY":264.8425,"EPHEMERIS_TYPE":0,"CLASSIFICATION_TYPE":"U","NORAD_CAT_ID":45146,"ELEMENT_SET_NO":999,"REV_AT_EPOCH":29667,"BSTAR":-0.00070476145,"MEAN_MOTION_DOT":-2.33e-6,"MEAN_MOTION_DDOT":0},{"OBJECT_NAME":"ONEWEB-0040","OBJECT_ID":"2020-008S","EPOCH":"2026-03-21T11:13:09.547104","MEAN_MOTION":13.10370291,"ECCENTRICITY":0.0001888,"INCLINATION":87.8791,"RA_OF_ASC_NODE":53.7403,"ARG_OF_PERICENTER":87.2017,"MEAN_ANOMALY":272.9326,"EPHEMERIS_TYPE":0,"CLASSIFICATION_TYPE":"U","NORAD_CAT_ID":45147,"ELEMENT_SET_NO":999,"REV_AT_EPOCH":29637,"BSTAR":0.0002626511,"MEAN_MOTION_DOT":1.04e-6,"MEAN_MOTION_DDOT":0},{"OBJECT_NAME":"ONEWEB-0043","OBJECT_ID":"2020-008U","EPOCH":"2026-03-21T11:15:32.766336","MEAN_MOTION":13.1036963,"ECCENTRICITY":0.00013927,"INCLINATION":87.8796,"RA_OF_ASC_NODE":53.7236,"ARG_OF_PERICENTER":93.866,"MEAN_ANOMALY":266.2627,"EPHEMERIS_TYPE":0,"CLASSIFICATION_TYPE":"U","NORAD_CAT_ID":45149,"ELEMENT_SET_NO":999,"REV_AT_EPOCH":29669,"BSTAR":-6.1384498e-5,"MEAN_MOTION_DOT":-9.0e-8,"MEAN_MOTION_DDOT":0},{"OBJECT_NAME":"ONEWEB-0044","OBJECT_ID":"2020-008V","EPOCH":"2026-03-21T10:06:11.966112","MEAN_MOTION":13.10373799,"ECCENTRICITY":0.00017583,"INCLINATION":87.8803,"RA_OF_ASC_NODE":53.7292,"ARG_OF_PERICENTER":88.1618,"MEAN_ANOMALY":271.971,"EPHEMERIS_TYPE":0,"CLASSIFICATION_TYPE":"U","NORAD_CAT_ID":45150,"ELEMENT_SET_NO":999,"REV_AT_EPOCH":29698,"BSTAR":-0.0011387373,"MEAN_MOTION_DOT":-3.85e-6,"MEAN_MOTION_DDOT":0},{"OBJECT_NAME":"ONEWEB-0045","OBJECT_ID":"2020-008W","EPOCH":"2026-03-21T13:47:57.665472","MEAN_MOTION":13.11414985,"ECCENTRICITY":0.00018033,"INCLINATION":87.8891,"RA_OF_ASC_NODE":38.4687,"ARG_OF_PERICENTER":83.7302,"MEAN_ANOMALY":276.4031,"EPHEMERIS_TYPE":0,"CLASSIFICATION_TYPE":"U","NORAD_CAT_ID":45151,"ELEMENT_SET_NO":999,"REV_AT_EPOCH":29892,"BSTAR":0.00067716157,"MEAN_MOTION_DOT":2.53e-6,"MEAN_MOTION_DDOT":0},{"OBJECT_NAME":"ONEWEB-0047","OBJECT_ID":"2020-008X","EPOCH":"2026-03-21T09:56:39.007104","MEAN_MOTION":13.10373892,"ECCENTRICITY":0.0002047,"INCLINATION":87.8797,"RA_OF_ASC_NODE":53.7327,"ARG_OF_PERICENTER":85.516,"MEAN_ANOMALY":274.6202,"EPHEMERIS_TYPE":0,"CLASSIFICATION_TYPE":"U","NORAD_CAT_ID":45152,"ELEMENT_SET_NO":999,"REV_AT_EPOCH":29670,"BSTAR":-0.0016617514,"MEAN_MOTION_DOT":-5.67e-6,"MEAN_MOTION_DDOT":0},{"OBJECT_NAME":"ONEWEB-0048","OBJECT_ID":"2020-008Y","EPOCH":"2026-03-21T11:39:26.026560","MEAN_MOTION":13.10372579,"ECCENTRICITY":0.00019484,"INCLINATION":87.8788,"RA_OF_ASC_NODE":53.7451,"ARG_OF_PERICENTER":84.7491,"MEAN_ANOMALY":275.3859,"EPHEMERIS_TYPE":0,"CLASSIFICATION_TYPE":"U","NORAD_CAT_ID":45153,"ELEMENT_SET_NO":999,"REV_AT_EPOCH":29632,"BSTAR":-0.0017210336,"MEAN_MOTION_DOT":-5.88e-6,"MEAN_MOTION_DDOT":0},{"OBJECT_NAME":"ONEWEB-0049","OBJECT_ID":"2020-008Z","EPOCH":"2026-03-21T09:54:03.726432","MEAN_MOTION":13.10373207,"ECCENTRICITY":0.00016009,"INCLINATION":87.8792,"RA_OF_ASC_NODE":53.7477,"ARG_OF_PERICENTER":71.9599,"MEAN_ANOMALY":288.1702,"EPHEMERIS_TYPE":0,"CLASSIFICATION_TYPE":"U","NORAD_CAT_ID":45154,"ELEMENT_SET_NO":999,"REV_AT_EPOCH":29653,"BSTAR":-0.00177146,"MEAN_MOTION_DOT":-6.06e-6,"MEAN_MOTION_DDOT":0},{"OBJECT_NAME":"ONEWEB-0051","OBJECT_ID":"2020-008AA","EPOCH":"2026-03-21T13:45:30.686976","MEAN_MOTION":13.1141589,"ECCENTRICITY":0.00018694,"INCLINATION":87.889,"RA_OF_ASC_NODE":38.4816,"ARG_OF_PERICENTER":80.9691,"MEAN_ANOMALY":279.1648,"EPHEMERIS_TYPE":0,"CLASSIFICATION_TYPE":"U","NORAD_CAT_ID":45155,"ELEMENT_SET_NO":999,"REV_AT_EPOCH":29960,"BSTAR":0.00089331483,"MEAN_MOTION_DOT":3.29e-6,"MEAN_MOTION_DDOT":0},{"OBJECT_NAME":"ONEWEB-0052","OBJECT_ID":"2020-008AB","EPOCH":"2026-03-21T10:01:48.213696","MEAN_MOTION":13.09877332,"ECCENTRICITY":0.00015237,"INCLINATION":87.8805,"RA_OF_ASC_NODE":53.7226,"ARG_OF_PERICENTER":71.4301,"MEAN_ANOMALY":288.6991,"EPHEMERIS_TYPE":0,"CLASSIFICATION_TYPE":"U","NORAD_CAT_ID":45156,"ELEMENT_SET_NO":999,"REV_AT_EPOCH":29644,"BSTAR":-0.0016773463,"MEAN_MOTION_DOT":-5.69e-6,"MEAN_MOTION_DDOT":0},{"OBJECT_NAME":"ONEWEB-0053","OBJECT_ID":"2020-008AC","EPOCH":"2026-03-21T11:10:46.200864","MEAN_MOTION":13.10370282,"ECCENTRICITY":0.00014824,"INCLINATION":87.879,"RA_OF_ASC_NODE":53.7463,"ARG_OF_PERICENTER":84.3281,"MEAN_ANOMALY":275.8015,"EPHEMERIS_TYPE":0,"CLASSIFICATION_TYPE":"U","NORAD_CAT_ID":45157,"ELEMENT_SET_NO":999,"REV_AT_EPOCH":29642,"BSTAR":0.00055433445,"MEAN_MOTION_DOT":2.06e-6,"MEAN_MOTION_DDOT":0},{"OBJECT_NAME":"ONEWEB-0054","OBJECT_ID":"2020-008AD","EPOCH":"2026-03-21T10:10:59.796480","MEAN_MOTION":13.10376979,"ECCENTRICITY":0.00018482,"INCLINATION":87.8803,"RA_OF_ASC_NODE":53.7298,"ARG_OF_PERICENTER":80.6914,"MEAN_ANOMALY":279.4423,"EPHEMERIS_TYPE":0,"CLASSIFICATION_TYPE":"U","NORAD_CAT_ID":45158,"ELEMENT_SET_NO":999,"REV_AT_EPOCH":29653,"BSTAR":-0.00083023054,"MEAN_MOTION_DOT":-2.77e-6,"MEAN_MOTION_DDOT":0},{"OBJECT_NAME":"ONEWEB-0056","OBJECT_ID":"2020-008AE","EPOCH":"2026-03-21T11:33:27.509760","MEAN_MOTION":13.10371933,"ECCENTRICITY":0.0001838,"INCLINATION":87.8796,"RA_OF_ASC_NODE":53.7186,"ARG_OF_PERICENTER":77.6087,"MEAN_ANOMALY":282.5246,"EPHEMERIS_TYPE":0,"CLASSIFICATION_TYPE":"U","NORAD_CAT_ID":45159,"ELEMENT_SET_NO":999,"REV_AT_EPOCH":29669,"BSTAR":-0.0015126662,"MEAN_MOTION_DOT":-5.15e-6,"MEAN_MOTION_DDOT":0}]
